#dP2022  6 22 12  0  0.00000000      96 __u+U ITR00 EXT  IAC
## 2215 302400.00000000   900.00000000 59752 0.5000000000000
+  116   C06C07C08C09C10C11C12C13C14C16C19C20C21C22C23C24C25
+        C26C27C28C29C30C32C33C34C35C36C37C38C39C40C41C42C43
+        C44C45C46E01E02E03E04E05E07E08E09E10E11E12E13E14E15
+        E18E19E21E24E25E26E27E30E31E33E34E36G01G02G03G04G05
+        G06G07G08G09G10G11G12G13G14G15G16G17G18G19G20G21G22
+        G23G24G25G26G27G28G29G30G31G32J02J03R01R02R03R04R05
+        R07R08R09R11R12R13R14R15R17R18R19R20R21R24  0  0  0
++         9 13 10 10 11  9  7  9  9 10  8  8  8  9  7  8  8
++         8  8  8  7  9  8  8  7 12 10  8  9  9 11  9  9  9
++         8 10  7  9  7  7  7  7  6  8  8  8  7  8  6  8  6
++         8  8  8  8  9  7  7  7  8  8  6  7  6  5  7  7  8
++         7  6  7  6  7  5  7  7  8  6  7  6  6  7  8  7  7
++         7  6  7  6  7  7  7  8  8  7  8  9  8  8  7  8  8
++         9  8  7  9  7  7  8  6  7  9  9  9  7  6  0  0  0
%c M  cc GPS ccc cccc cccc cccc cccc ccccc ccccc ccccc ccccc
%c cc cc ccc ccc cccc cccc cccc cccc ccccc ccccc ccccc ccccc
%f  0.0000000  0.000000000  0.00000000000  0.000000000000000
%f  0.0000000  0.000000000  0.00000000000  0.000000000000000
%i    0    0    0    0      0      0      0      0         0
%i    0    0    0    0      0      0      0      0         0
/* IAC                                ULTRA-RAPID PREDICTION
/* S/V CLOCKS ARE ALIGNED TO GNSS TIME                      
/* G:C1WC2W R:C1PC2P E:C1XC5X C:C2IC6I J:C1CC2S             
/* PCV:IGS14_2196 OL/AL:FES2004  NONE     YN ORB:CoN CLK:CoN
*  2022 06 22 18  0  0.00000000
PC06 -11700.427180  24377.556591  32310.175206    243.390808
PC07 -11691.068273  40548.734898  -2343.347418   -333.266376
PC08   2064.725666  30496.591250 -28988.004890    373.899631
PC09  -4106.050407  24680.085004  34267.972083   -908.128748
PC10  -6695.125795  41082.117759  -7956.487014    124.378066
PC11  25590.316026  -8274.572408   7437.260280    430.415588
PC12  25808.257666   3056.466204 -10115.015309   -593.183723
PC13   6478.037130  33282.465244 -24759.479148      3.403027
PC14  17250.675105 -15554.450138  15443.081159    512.401478
PC16 -15488.261404  23518.905799  31490.248219    140.767881
PC19 -13989.356776  23049.108563  -7220.856222    -56.007779
PC20 -17684.554418   7633.969270 -20189.635449   -965.576442
PC21  10926.770240  13509.409176  21860.921927   -535.667180
PC22  -2114.824022  25803.924644  10458.655751   -963.709461
PC23  -6940.112175 -23622.796487 -13123.362208   -936.545068
PC24  20689.712797   4957.108443 -18051.350907   -969.492485
PC25   8708.943304 -14407.576733 -22262.049035   -718.102360
PC26  20137.637893  18767.242954  -4485.919694    719.802582
PC27 -20350.733439  -8839.275971  16893.105798    743.027567
PC28  -1657.238289 -15811.437324  22932.319214     81.596265
PC29 -18397.324090  14296.903397 -15370.252928    571.917440
PC30 -27566.756611   3882.676962   1767.246933    500.233353
PC32 -11010.258535 -13443.782903 -21814.679271   -970.629514
PC33  13921.464952 -23031.353189   7345.936161   -973.117288
PC34  27540.679564  -4508.365087   -777.497373   -375.013411
PC35    947.081287  16022.268136 -22840.092880    332.648924
PC36  -9508.247272  13747.485441  22374.861492   -969.625089
PC37 -19262.996717 -19925.170904   3366.403723   -910.628961
PC38  -5697.418323  26930.701060 -31883.114568      5.010889
PC39 -20783.312438  23342.508192  28263.738830     35.000573
PC40 -18716.410499  37886.663684    939.149172    279.572037
PC41   2402.290136 -25937.546535  -9949.974919    -22.560056
PC42  17635.907218  -6386.651822  20699.172355   -958.345732
PC43  19072.721460 -14039.534498  14763.403286   -916.656962
PC44  20537.365017   8344.024470 -16985.446695    700.744635
PC45   7243.916527  23630.369000  12947.869810    790.230081
PC46 -20163.009523  -3484.406392  18997.357132   -393.007820
PE01   8338.705965  27833.092681  -5649.525427   -501.195992
PE02  -8446.501085 -27772.615674   5819.159188    307.335526
PE03  -4818.549131 -17429.836627 -23427.978827   -571.515028
PE04  20788.063886   2075.110712  20979.561338  -1055.693621
PE05  14339.552923 -22865.333932 -12142.092368   -169.728699
PE07 -24847.572123  14935.206324  -5999.126443   -680.854885
PE08 -20848.018987  -1692.117654 -20943.664766   -551.109563
PE09  24765.327229 -15044.418769   6008.342081   -562.481817
PE10  27879.813539   3961.855709   9100.895875   -521.443803
PE11  23425.917291  -3584.527684  17727.883367   3261.317941
PE12  27649.701377  10585.361539   -453.452819    -24.644235
PE13 -23830.820289   3101.692603 -17282.215519    429.431570
PE14  -6833.409961  23929.080629 -20953.481488  -1800.238454
PE15 -27631.254577 -10591.266400    595.338391    737.781750
PE18   1793.893263 -16605.943756  16476.967231  -1299.063720
PE19   2224.382046  18730.967321  22822.992368  -5299.062641
PE21  -3726.898364  26909.286695  11759.614903   -741.697553
PE24  15005.002520  -9244.096226 -23794.550909   -685.048091
PE25   3905.291245 -26777.712621 -11987.599158   -578.512402
PE26  -5143.511071  15386.636687 -24762.790853  -1292.890583
PE27 -14525.498674  10526.549309  23549.403478   -328.112810
PE30 -16506.268932 -12954.720709  20875.247522   -613.678828
PE31  16670.009388  11896.042487 -21363.071862   -498.706699
PE33  15118.178572  17969.123884 -18029.289523   -455.383946
PE34 -15343.425668 -17912.355383  17876.419311   -523.458178
PE36   6087.288756 -14854.197669  24863.465483   -391.833653
PG01  22183.651317  14517.639320  -3866.064590    335.958982
PG02  -4825.673981 -17163.124066  20290.732115   -652.410559
PG03  12385.728846  16234.727879  16931.462095   -286.532500
PG04  15908.691539   6843.001837  20171.073348   -154.219335
PG05  -6058.951709 -25291.356171  -5164.366099    -86.477202
PG06  10836.135113 -10652.938593  21853.631105    354.407042
PG07  24152.426573   3976.701314 -10492.868874    321.316396
PG08   8831.834444  12353.975546 -21834.242219    -73.223021
PG09  22181.177264  -2855.531947  14282.628719   -326.022236
PG10 -11747.819569  14666.383984 -18501.307064   -464.942977
PG11  -3122.369870 -17590.922501  19654.468664    -13.470117
PG12  -9650.381531 -19885.274389  14540.435953   -235.161188
PG13   2166.825509 -16723.888171 -20629.874180    334.772141
PG14  13226.638073 -13106.478890 -18901.956209   -111.837453
PG15 -10789.430105 -11917.232684 -21561.963749    -51.177967
PG16   -458.663343  26301.853860   -681.423512   -510.759524
PG17  22532.754766 -14059.247369   1647.325872    628.200844
PG18 -23831.899393  -4065.806164 -11144.164305    134.691489
PG19  18595.567046 -16337.830612   9060.463660    174.142152
PG20   -313.861812 -25725.935017   7064.311402    509.252772
PG21  17492.385133  16131.292643 -11855.987249    161.302354
PG22 -15737.142296  17937.577810  11891.431153    280.141432
PG23 -14785.301766   3117.938390 -21848.829510    -29.397912
PG24 -20762.574059 -14997.273790  -8098.647739    214.802119
PG25 -15068.009732  -5916.412658  20816.633379    340.527136
PG26  -5058.289201  23699.355957  10419.819091    213.947173
PG27  -4873.206166  18364.529379 -18606.073196    217.477987
PG28   9388.939339 -21330.602079 -12441.587012    333.258296
PG29 -22534.592048   1717.646389  13960.243318   -526.592519
PG30  19071.792238  -4826.195766 -17870.210528   -532.129840
PG31  -9040.143094  12454.185164  21538.704401   -182.844018
PG32 -20533.302866  16387.993647   3273.122156   -157.700025
PJ02 -26638.315443  24878.631494  26250.885713     -0.907994
PJ03 -31119.861736  18712.978309 -16693.490105     -3.018792
PR01  14753.840781  -6585.727187  19737.567222     10.326432
PR02  14777.012498 -20509.486431   3694.183593    522.013860
PR03   5505.812764 -21080.656914 -13262.236598     58.896711
PR04  -6413.066530  -9756.329430 -22648.837836    147.698103
PR05 -14932.052061   6775.970799 -19516.914394     95.063959
PR07  -4908.820458  20742.377727  14018.736337     36.792318
PR08   6697.181657   9648.128379  22700.200112    -65.831332
PR09  -4862.729233  12886.238907  21507.166557     61.893670
PR11  14772.016046  19723.734185  -6611.326409     35.432441
PR12  14002.152583   4827.052048 -20734.956059     18.977836
PR13   5624.144026 -11515.120893 -22065.236515    -23.856060
PR14  -7054.109336 -22429.376080  -9850.375487     25.153051
PR15 -14793.926339 -19373.029360   7528.869913     95.196724
PR17  -1531.769081 -10575.022582  23163.965446    537.177645
PR18 -18191.709039  -7879.284494  16027.360250    121.152340
PR19 -25353.254995  -2334.799419   1591.862925   -193.681724
PR20 -17590.388310   6514.775709 -17264.670518    -73.138941
PR21   3105.629756  10490.539735 -23048.202898   -311.561690
PR24  16877.185518  -7560.153470  17570.014750     99.975358
EOF
